SKYKRAFT-1A             
1 55054U 23001AX  26068.71064616  .00008177  00000+0  30069-3 0  9991
2 55054  97.3349 127.6290 0011277 121.5092 238.7251 15.28083228176529
STARLINK-31191          
1 58800U 24012P   26068.32612010 -.00002857  00000+0 -94377-4 0  9994
2 58800  42.9995 167.0192 0000611 223.2336 136.8468 15.27576274121181
